[
    {
        "id": 815,
        "nameTH": "Soesterberg",
        "nameEN": "Soesterberg",
        "icao": "EHSB",
        "iata": "UTC",
        "zoneNo": "3",
        "regionNo": "2"
    },
    {
        "id": 3911,
        "nameTH": "TUNTA",
        "nameEN": "TUNTA",
        "icao": "FZWT",
        "iata": "KBN",
        "zoneNo": "4",
        "regionNo": "0"
    },
    {
        "id": 3383,
        "nameTH": " เกไป",
        "nameEN": "KEPI",
        "icao": "WAKP",
        "iata": "KEI",
        "zoneNo": "7",
        "regionNo": "2"
    },
    {
        "id": 3899,
        "nameTH": "แกชจา(คาชิ)",
        "nameEN": "KASHGAR  (KASHI AIRPORT)",
        "icao": "ZWSH",
        "iata": "KHG",
        "zoneNo": "6",
        "regionNo": "6"
    },
    {
        "id": 2294,
        "nameTH": " ข้อย",
        "nameEN": "KHOY",
        "icao": "OITK",
        "iata": "KHY",
        "zoneNo": "7",
        "regionNo": "4"
    },
    {
        "id": 2895,
        "nameTH": "คารัทตาเปรา",
        "nameEN": "CARUTAPERA",
        "icao": "SNCP",
        "iata": "CTP",
        "zoneNo": "2",
        "regionNo": "5"
    },
    {
        "id": 1115,
        "nameTH": " คิสซิดัวกัว",
        "nameEN": "KISSIDOUGOU",
        "icao": "GUKU",
        "iata": "KSI",
        "zoneNo": "4",
        "regionNo": "6"
    },
    {
        "id": 3046,
        "nameTH": " เครช",
        "nameEN": "KERCH  (VOYKOVO AIRPORT)",
        "icao": "UKFK",
        "iata": "KHC",
        "zoneNo": "3",
        "regionNo": "1"
    },
    {
        "id": 2679,
        "nameTH": "เจียงเซียก",
        "nameEN": "JEONGSEOK",
        "icao": "RKPD",
        "iata": "JDG",
        "zoneNo": "6",
        "regionNo": "3"
    },
    {
        "id": 3894,
        "nameTH": "เฉิงตู",
        "nameEN": "CHENGDU",
        "icao": "ZUUU",
        "iata": "CTU",
        "zoneNo": "8",
        "regionNo": "3"
    },
    {
        "id": 1009,
        "nameTH": "ซิกาซโซ่",
        "nameEN": "SIKASSO",
        "icao": "GASK",
        "iata": "KSS",
        "zoneNo": "4",
        "regionNo": "5"
    },
    {
        "id": 3878,
        "nameTH": "ซูนานซูฟ่าง",
        "nameEN": "SUNAN SHUOFANG",
        "icao": "ZSWX",
        "iata": "WUX",
        "zoneNo": "6",
        "regionNo": "4"
    },
    {
        "id": 1821,
        "nameTH": "ไซแนก",
        "nameEN": "SIRNAK",
        "icao": "LTCV",
        "iata": "NKT",
        "zoneNo": "8",
        "regionNo": "4"
    },
    {
        "id": 3306,
        "nameTH": "ท่าอากาศยานกระบี่",
        "nameEN": "KRABI",
        "icao": "VTSG",
        "iata": "KBV",
        "zoneNo": "7",
        "regionNo": "4"
    },
    {
        "id": 3329,
        "nameTH": "ท่าอากาศยานขอนแก่น",
        "nameEN": "KHONKAEN",
        "icao": "VTUK",
        "iata": "KKC",
        "zoneNo": "7",
        "regionNo": "3"
    },
    {
        "id": 3304,
        "nameTH": "ท่าอากาศยานชุมพร",
        "nameEN": "CHUMPHON",
        "icao": "VTSE",
        "iata": "CJM",
        "zoneNo": "7",
        "regionNo": "4"
    },
    {
        "id": 3262,
        "nameTH": "ท่าอากาศยานเชียงใหม่",
        "nameEN": "CHIANG MAI",
        "icao": "VTCC",
        "iata": "CNX",
        "zoneNo": "7",
        "regionNo": "2"
    },
    {
        "id": 3237,
        "nameTH": "ท่าอากาศยานดอนเมือง",
        "nameEN": "DON MUEANG",
        "icao": "VTBD",
        "iata": "DMK",
        "zoneNo": "7",
        "regionNo": "1"
    },
    {
        "id": 3315,
        "nameTH": "ท่าอากาศยานตรัง",
        "nameEN": "TRANG",
        "icao": "VTST",
        "iata": "TST",
        "zoneNo": "7",
        "regionNo": "4"
    },
    {
        "id": 3295,
        "nameTH": "ท่าอากาศยานตาก",
        "nameEN": "TAK",
        "icao": "VTPT",
        "iata": "TKT",
        "zoneNo": "7",
        "regionNo": "2"
    },
    {
        "id": 3067,
        "nameTH": "ท่าอากาศยานทอลมาเชโว",
        "nameEN": "Tolmachevo",
        "icao": "UNNT",
        "iata": "OVB",
        "zoneNo": "3",
        "regionNo": "2"
    },
    {
        "id": 3806,
        "nameTH": "ท่าอากาศยานเทียนจิน",
        "nameEN": "TIANJIN",
        "icao": "ZBTJ",
        "iata": "TSN",
        "zoneNo": "8",
        "regionNo": "5"
    },
    {
        "id": 3341,
        "nameTH": "ท่าอากาศยานนครพนม",
        "nameEN": "NAKHON PHANOM",
        "icao": "VTUW",
        "iata": "KOP",
        "zoneNo": "7",
        "regionNo": "3"
    },
    {
        "id": 3335,
        "nameTH": "ท่าอากาศยานนครราชสีมา",
        "nameEN": "NAKHON RATCHASIMA",
        "icao": "VTUQ",
        "iata": "NAK",
        "zoneNo": "7",
        "regionNo": "3"
    },
    {
        "id": 3305,
        "nameTH": "ท่าอากาศยานนครศรีธรรมราช",
        "nameEN": "NAKHON SI THAMMARAT",
        "icao": "VTSF",
        "iata": "NST",
        "zoneNo": "7",
        "regionNo": "4"
    },
    {
        "id": 3286,
        "nameTH": "ท่าอากาศยานนครสวรรค์(ตาคลี)",
        "nameEN": "THAKLI AIR FORCE BASE",
        "icao": "VTPI",
        "iata": "TKH",
        "zoneNo": "7",
        "regionNo": "2"
    },
    {
        "id": 3302,
        "nameTH": "ท่าอากาศยานนราธิวาส",
        "nameEN": "NARATHIWAT",
        "icao": "VTSC",
        "iata": "NAW",
        "zoneNo": "7",
        "regionNo": "4"
    },
    {
        "id": 3271,
        "nameTH": "ท่าอากาศยานน่านนคร",
        "nameEN": "NANNAKHON",
        "icao": "VTCN",
        "iata": "NNT",
        "zoneNo": "7",
        "regionNo": "2"
    },
    {
        "id": 3112,
        "nameTH": "ท่าอากาศยานนานาชาติเบลโกโรด",
        "nameEN": "BELGOROD INTERNATIONAL",
        "icao": "UUOB",
        "iata": "EGO",
        "zoneNo": "3",
        "regionNo": "3"
    },
    {
        "id": 3154,
        "nameTH": "ท่าอากาศยานนานาชาติเสียมราฐ",
        "nameEN": "SIEM REAP",
        "icao": "VDSR",
        "iata": "REP",
        "zoneNo": "7",
        "regionNo": "1"
    },
    {
        "id": 3333,
        "nameTH": "ท่าอากาศยานบุรีรัมย์",
        "nameEN": "BURIRAM",
        "icao": "VTUO",
        "iata": "BFV",
        "zoneNo": "7",
        "regionNo": "3"
    },
    {
        "id": 3317,
        "nameTH": "ท่าอากาศยานเบตง",
        "nameEN": "BETONG",
        "icao": "VTSY",
        "iata": "BTG",
        "zoneNo": "7",
        "regionNo": "4"
    },
    {
        "id": 3309,
        "nameTH": "ท่าอากาศยานปัตตานี",
        "nameEN": "PATTANI",
        "icao": "VTSK",
        "iata": "PAN",
        "zoneNo": "7",
        "regionNo": "4"
    },
    {
        "id": 3267,
        "nameTH": "ท่าอากาศยานปาย",
        "nameEN": "PAI",
        "icao": "VTCI",
        "iata": "PYY",
        "zoneNo": "7",
        "regionNo": "2"
    },
    {
        "id": 3292,
        "nameTH": "ท่าอากาศยานพิษณุโลก",
        "nameEN": "PHITSANULOK",
        "icao": "VTPP",
        "iata": "PHS",
        "zoneNo": "7",
        "regionNo": "2"
    },
    {
        "id": 3281,
        "nameTH": "ท่าอากาศยานเพชรบูรณ์",
        "nameEN": "PHETCHABUN",
        "icao": "VTPB",
        "iata": "PHY",
        "zoneNo": "7",
        "regionNo": "2"
    },
    {
        "id": 3273,
        "nameTH": "ท่าอากาศยานแพร่",
        "nameEN": "PHRAE",
        "icao": "VTCP",
        "iata": "PRH",
        "zoneNo": "7",
        "regionNo": "2"
    },
    {
        "id": 3312,
        "nameTH": "ท่าอากาศยานภูเก็ต",
        "nameEN": "PHUKET",
        "icao": "VTSP",
        "iata": "HKT",
        "zoneNo": "7",
        "regionNo": "4"
    },
    {
        "id": 3276,
        "nameTH": "ท่าอากาศยานแม่ฟ้าหลวง เชียงราย",
        "nameEN": "MAE FAH LUANG - CHIANG RAI",
        "icao": "VTCT",
        "iata": "CEI",
        "zoneNo": "7",
        "regionNo": "2"
    },
    {
        "id": 3289,
        "nameTH": "ท่าอากาศยานแม่สอด",
        "nameEN": "MAESOT",
        "icao": "VTPM",
        "iata": "MAQ",
        "zoneNo": "7",
        "regionNo": "2"
    },
    {
        "id": 3266,
        "nameTH": "ท่าอากาศยานแม่ฮ่องสอน",
        "nameEN": "MAE HONG SON",
        "icao": "VTCH",
        "iata": "HGN",
        "zoneNo": "7",
        "regionNo": "2"
    },
    {
        "id": 3340,
        "nameTH": "ท่าอากาศยานร้อยเอ็ด",
        "nameEN": "ROI ET",
        "icao": "VTUV",
        "iata": "ROI",
        "zoneNo": "7",
        "regionNo": "3"
    },
    {
        "id": 3313,
        "nameTH": "ท่าอากาศยานระนอง",
        "nameEN": "RANONG",
        "icao": "VTSR",
        "iata": "UNN",
        "zoneNo": "7",
        "regionNo": "4"
    },
    {
        "id": 3269,
        "nameTH": "ท่าอากาศยานลำปาง",
        "nameEN": "LAMPANG",
        "icao": "VTCL",
        "iata": "LPT",
        "zoneNo": "7",
        "regionNo": "2"
    },
    {
        "id": 3330,
        "nameTH": "ท่าอากาศยานเลย",
        "nameEN": "LOEI",
        "icao": "VTUL",
        "iata": "LOE",
        "zoneNo": "7",
        "regionNo": "3"
    },
    {
        "id": 3327,
        "nameTH": "ท่าอากาศยานสกลนคร",
        "nameEN": "SAKON NAKHON",
        "icao": "VTUI",
        "iata": "SNO",
        "zoneNo": "7",
        "regionNo": "3"
    },
    {
        "id": 3301,
        "nameTH": "ท่าอากาศยานสุราษฎร์ธานี",
        "nameEN": "SURATTHANI",
        "icao": "VTSB",
        "iata": "URT",
        "zoneNo": "7",
        "regionNo": "4"
    },
    {
        "id": 3252,
        "nameTH": "ท่าอากาศยานสุวรรณภูมิ",
        "nameEN": "SUVARNABHUMI",
        "icao": "VTBS",
        "iata": "BKK",
        "zoneNo": "7",
        "regionNo": "1"
    },
    {
        "id": 3881,
        "nameTH": "ท่าอากาศยานหยางโจว ไท่ซู",
        "nameEN": "YANGZHOU TAIZHOU AIRPORT",
        "icao": "ZSYA",
        "iata": "YTY",
        "zoneNo": "6",
        "regionNo": "5"
    },
    {
        "id": 3285,
        "nameTH": "ท่าอากาศยานหัวหิน",
        "nameEN": "HUAHIN",
        "icao": "VTPH",
        "iata": "HHQ",
        "zoneNo": "7",
        "regionNo": "4"
    },
    {
        "id": 3314,
        "nameTH": "ท่าอากาศยานหาดใหญ่",
        "nameEN": "HAT YAI",
        "icao": "VTSS",
        "iata": "HDY",
        "zoneNo": "7",
        "regionNo": "4"
    },
    {
        "id": 3322,
        "nameTH": "ท่าอากาศยานอุดรธานี",
        "nameEN": "UDONTHANI",
        "icao": "VTUD",
        "iata": "UTH",
        "zoneNo": "7",
        "regionNo": "3"
    },
    {
        "id": 3339,
        "nameTH": "ท่าอากาศยานอุบลราชธานี",
        "nameEN": "UBONRATCHATHANI",
        "icao": "VTUU",
        "iata": "UBP",
        "zoneNo": "7",
        "regionNo": "3"
    },
    {
        "id": 3254,
        "nameTH": "ท่าอากาศยานอู่ตะเภา",
        "nameEN": "U TAPAO",
        "icao": "VTBU",
        "iata": "UTP",
        "zoneNo": "7",
        "regionNo": "5"
    },
    {
        "id": 3373,
        "nameTH": "ที่ขึ้นลงชั่วคราว เกาะไม้ซี้ตราด",
        "nameEN": "KOH MAI SI (AIRFIELD)",
        "icao": "VZZZ",
        "iata": "ZZZ",
        "zoneNo": "7",
        "regionNo": "5"
    },
    {
        "id": 3390,
        "nameTH": " โนโตฮาดิเนโกโร",
        "nameEN": "NOTOHADINEGORO",
        "icao": "WARE",
        "iata": "JBB",
        "zoneNo": "7",
        "regionNo": "5"
    },
    {
        "id": 3538,
        "nameTH": "บริสเบน",
        "nameEN": "BRISBAME",
        "icao": "YBBN",
        "iata": "BNE",
        "zoneNo": "9",
        "regionNo": "4"
    },
    {
        "id": 3848,
        "nameTH": "บายันคองเกอร์",
        "nameEN": "BAYANKHONGOR",
        "icao": "ZMBH",
        "iata": "BYN",
        "zoneNo": "2",
        "regionNo": "3"
    },
    {
        "id": 777,
        "nameTH": "เมิร์สบรั๊ค",
        "nameEN": "MERZBRUCK",
        "icao": "EDKA",
        "iata": "AAH",
        "zoneNo": "3",
        "regionNo": "4"
    },
    {
        "id": 3910,
        "nameTH": "ไม่ใช่ท่าอากาศยาน บันทึก ใน remark",
        "nameEN": "NON AIRPORT  use remark",
        "icao": "ZZZZ",
        "iata": "ZZZ",
        "zoneNo": "7",
        "regionNo": "3"
    },
    {
        "id": 597,
        "nameTH": "",
        "nameEN": "CUNEO INTERNATIONAL AIRPORT",
        "icao": "CUF",
        "iata": "CUF",
        "zoneNo": "3",
        "regionNo": "1"
    },
    {
        "id": 687,
        "nameTH": null,
        "nameEN": "MAN",
        "icao": "DIMN",
        "iata": "MJC",
        "zoneNo": "4",
        "regionNo": "6"
    },
    {
        "id": 744,
        "nameTH": "",
        "nameEN": "DUBLIN, REPUBLIC OF IRELAND",
        "icao": "DUB",
        "iata": "DUB",
        "zoneNo": "3",
        "regionNo": "6"
    },
    {
        "id": 1224,
        "nameTH": null,
        "nameEN": "KAMEMBE",
        "icao": "HRZA",
        "iata": "KME",
        "zoneNo": "4",
        "regionNo": "2"
    },
    {
        "id": 1497,
        "nameTH": "",
        "nameEN": "Lianshula",
        "icao": "KLHU",
        "iata": "LHU",
        "zoneNo": "4",
        "regionNo": "6"
    },
    {
        "id": 1702,
        "nameTH": "",
        "nameEN": "EVREUX-FAUVILLE AIR BASE",
        "icao": "LFOE",
        "iata": "EVX",
        "zoneNo": "3",
        "regionNo": "2"
    },
    {
        "id": 1776,
        "nameTH": "",
        "nameEN": "LOUISA COUNTY",
        "icao": "LOW",
        "iata": "LOW",
        "zoneNo": "3",
        "regionNo": "6"
    },
    {
        "id": 2049,
        "nameTH": null,
        "nameEN": "TAMBOR",
        "icao": "MRTR",
        "iata": "TMU",
        "zoneNo": "1",
        "regionNo": "2"
    },
    {
        "id": 2079,
        "nameTH": null,
        "nameEN": "LAS BRUJAS AIRPORT",
        "icao": "MUBR",
        "iata": "BWW",
        "zoneNo": "1",
        "regionNo": "2"
    },
    {
        "id": 2129,
        "nameTH": null,
        "nameEN": "MELINDA",
        "icao": "MZML",
        "iata": "MDB",
        "zoneNo": "1",
        "regionNo": "1"
    },
    {
        "id": 2339,
        "nameTH": null,
        "nameEN": "PAKISTAN AIR FORCE",
        "icao": "OPSR",
        "iata": "SGI",
        "zoneNo": "6",
        "regionNo": "4"
    },
    {
        "id": 2393,
        "nameTH": "",
        "nameEN": "JAY PRAKASH nARAYAN",
        "icao": "PAT",
        "iata": "PAT",
        "zoneNo": "6",
        "regionNo": "4"
    },
    {
        "id": 2764,
        "nameTH": null,
        "nameEN": "PONTA PELADA",
        "icao": "SBMN",
        "iata": "PLL",
        "zoneNo": "2",
        "regionNo": "2"
    },
    {
        "id": 2851,
        "nameTH": null,
        "nameEN": "EI TRONCAL",
        "icao": "SKAT",
        "iata": "ARQ",
        "zoneNo": "1",
        "regionNo": "3"
    },
    {
        "id": 2940,
        "nameTH": null,
        "nameEN": "CASSILANDIA",
        "icao": "SSCL",
        "iata": "CSS",
        "zoneNo": "2",
        "regionNo": "6"
    },
    {
        "id": 2973,
        "nameTH": "",
        "nameEN": "ANTANANARIVO",
        "icao": "TNR",
        "iata": "TNR",
        "zoneNo": "4",
        "regionNo": "1"
    },
    {
        "id": 2991,
        "nameTH": "",
        "nameEN": "TOKYO",
        "icao": "TYO",
        "iata": "TYO",
        "zoneNo": "8",
        "regionNo": "1"
    },
    {
        "id": 3082,
        "nameTH": null,
        "nameEN": "PLATOV",
        "icao": "URRP",
        "iata": "ROV",
        "zoneNo": "3",
        "regionNo": "2"
    },
    {
        "id": 3092,
        "nameTH": "",
        "nameEN": "NIZHNEVATOVSK",
        "icao": "USNN",
        "iata": "NJC",
        "zoneNo": "3",
        "regionNo": "6"
    },
    {
        "id": 3105,
        "nameTH": null,
        "nameEN": "NAVOI",
        "icao": "UTSA",
        "iata": "NVI",
        "zoneNo": "10",
        "regionNo": "1"
    },
    {
        "id": 3109,
        "nameTH": "",
        "nameEN": "Zhukovsky International Airport",
        "icao": "UUBW",
        "iata": "ZIA",
        "zoneNo": "3",
        "regionNo": "4"
    },
    {
        "id": 3444,
        "nameTH": null,
        "nameEN": "RMAF BUTTEWORTH",
        "icao": "WMKB",
        "iata": "BWH",
        "zoneNo": "6",
        "regionNo": "6"
    },
    {
        "id": 3797,
        "nameTH": null,
        "nameEN": "BEIDAIHE",
        "icao": "ZBDH",
        "iata": "BPE",
        "zoneNo": "7",
        "regionNo": "4"
    },
    {
        "id": 3893,
        "nameTH": null,
        "nameEN": "TONGREN FENGHUANG",
        "icao": "ZUTR",
        "iata": "TEN",
        "zoneNo": "7",
        "regionNo": "5"
    },
    {
        "id": 3895,
        "nameTH": "",
        "nameEN": "ZUNYI XINZHOU",
        "icao": "ZUZY",
        "iata": "ZYI",
        "zoneNo": "8",
        "regionNo": "4"
    },
    {
        "id": 2227,
        "nameTH": "ราโร้",
        "nameEN": "RAROIA",
        "icao": "NTKO",
        "iata": "RRR",
        "zoneNo": "3",
        "regionNo": "6"
    },
    {
        "id": 3891,
        "nameTH": "ลิโบ",
        "nameEN": "LIBO",
        "icao": "ZULB",
        "iata": "LLB",
        "zoneNo": "10",
        "regionNo": "2"
    },
    {
        "id": 3005,
        "nameTH": " แลนการัน อินเตอร์ชั่นแนล",
        "nameEN": "LANKARAN INTERNATIONAL",
        "icao": "UBBL",
        "iata": "LLK",
        "zoneNo": "8",
        "regionNo": "4"
    },
    {
        "id": 1002,
        "nameTH": "สนามบิน โคโร",
        "nameEN": "NKOLO",
        "icao": "FZAR",
        "iata": "NKL",
        "zoneNo": "4",
        "regionNo": "6"
    },
    {
        "id": 3173,
        "nameTH": "สนามบิน ชามเซอร์นากา",
        "nameEN": "SHAMSHERNAGAR",
        "icao": "VGSH",
        "iata": "ZHM",
        "zoneNo": "6",
        "regionNo": "5"
    },
    {
        "id": 2710,
        "nameTH": "สนามบิน ชิโมจิซิมา",
        "nameEN": "SHIMOJISHIMA",
        "icao": "RORS",
        "iata": "SHI",
        "zoneNo": "10",
        "regionNo": "1"
    },
    {
        "id": 1801,
        "nameTH": "สนามบิน ชิเวรี่ ฟีล",
        "nameEN": "SHIVELY FIELD",
        "icao": "LSAA",
        "iata": "SAA",
        "zoneNo": "3",
        "regionNo": "2"
    },
    {
        "id": 3018,
        "nameTH": "สนามบิน โชกัวด๊าก",
        "nameEN": "CHOKURDAKH",
        "icao": "UESO",
        "iata": "CKH",
        "zoneNo": "3",
        "regionNo": "6"
    },
    {
        "id": 2976,
        "nameTH": "สนามบิน ตรอลเดม",
        "nameEN": "TRONDHEIM AIRPORT",
        "icao": "ENVA",
        "iata": "TRD",
        "zoneNo": "3",
        "regionNo": "1"
    },
    {
        "id": 1432,
        "nameTH": "สนามบิน บราทอลมิวนิซิปปาล",
        "nameEN": "BARTOW MUNICIPAL",
        "icao": "KBOW",
        "iata": "BOW",
        "zoneNo": "3",
        "regionNo": "5"
    },
    {
        "id": 1498,
        "nameTH": "สนามบิน เลเวลล็อค",
        "nameEN": "LEVELOCK",
        "icao": "KLL",
        "iata": "KLL",
        "zoneNo": "3",
        "regionNo": "4"
    },
    {
        "id": 1442,
        "nameTH": "สนามบิน โลอิส ดาวทาวน์",
        "nameEN": "ST. LOUIS DOWNTOWN AIRPORT",
        "icao": "KCPS",
        "iata": "CPS",
        "zoneNo": "3",
        "regionNo": "1"
    },
    {
        "id": 1569,
        "nameTH": "สนามบิน อรานแซส คันทรี่",
        "nameEN": "ARANSAS COUNTY",
        "icao": "KRKP",
        "iata": "RKP",
        "zoneNo": "3",
        "regionNo": "2"
    },
    {
        "id": 3532,
        "nameTH": "สนามบิน อาราบูรี",
        "nameEN": "ARRABURY",
        "icao": "YARY",
        "iata": "AAB",
        "zoneNo": "1",
        "regionNo": "5"
    },
    {
        "id": 2429,
        "nameTH": "สนามบิน แอนเดอร์สัน แอร์",
        "nameEN": "ANDERSEN AIR FORCE BASE",
        "icao": "PGUA",
        "iata": "UAM",
        "zoneNo": "9",
        "regionNo": "4"
    },
    {
        "id": 1666,
        "nameTH": "สนามบิน ฮาสโคโว มาเลโว",
        "nameEN": "HASKOVO MALEVO",
        "icao": "LBHS",
        "iata": "HKV",
        "zoneNo": "3",
        "regionNo": "3"
    },
    {
        "id": 3244,
        "nameTH": "สนามบินกำแพงแสน",
        "nameEN": "NAKHON PATHOM/KAMPHAENG SAEN",
        "icao": "VTBK",
        "iata": "KDT",
        "zoneNo": "7",
        "regionNo": "1"
    },
    {
        "id": 3308,
        "nameTH": "สนามบินเกาะพีพี",
        "nameEN": "KHO PHI PHI",
        "icao": "VTSI",
        "iata": "PHZ",
        "zoneNo": "7",
        "regionNo": "4"
    },
    {
        "id": 3298,
        "nameTH": "สนามบินเขื่อนภูมิพล",
        "nameEN": "KHUAN PHUMIPHON",
        "icao": "VTPY",
        "iata": "TPY",
        "zoneNo": "7",
        "regionNo": "2"
    },
    {
        "id": 3239,
        "nameTH": "สนามบินชลบุรี/พัทยา",
        "nameEN": "CHON BURI/PATTAYA",
        "icao": "VTBF",
        "iata": "PYX",
        "zoneNo": "7",
        "regionNo": "3"
    },
    {
        "id": 3248,
        "nameTH": "สนามบินตราด",
        "nameEN": "TRAT",
        "icao": "VTBO",
        "iata": "TDX",
        "zoneNo": "7",
        "regionNo": "5"
    },
    {
        "id": 3297,
        "nameTH": "สนามบินนครนายก",
        "nameEN": "NAKHON NAYOK",
        "icao": "VTPV",
        "iata": "TPV",
        "zoneNo": "7",
        "regionNo": "1"
    },
    {
        "id": 3280,
        "nameTH": "สนามบินพัทยา",
        "nameEN": "PATTAYA",
        "icao": "VTPA",
        "iata": "PYX",
        "zoneNo": "7",
        "regionNo": "5"
    },
    {
        "id": 3287,
        "nameTH": "สนามบินมาบคา",
        "nameEN": "MAP KHA",
        "icao": "VTPK",
        "iata": "MBK",
        "zoneNo": "7",
        "regionNo": "5"
    },
    {
        "id": 3245,
        "nameTH": "สนามบินลพบุรี/โคกกระเท่ียม",
        "nameEN": "LOP BURI/KHOK KATHIAM",
        "icao": "VTBL",
        "iata": "KKM",
        "zoneNo": "7",
        "regionNo": "1"
    },
    {
        "id": 3307,
        "nameTH": "สนามบินสงขลา",
        "nameEN": "SONGKHLA",
        "icao": "VTSH",
        "iata": "SGZ",
        "zoneNo": "7",
        "regionNo": "4"
    },
    {
        "id": 3310,
        "nameTH": "สนามบินสมุย",
        "nameEN": "SAMUI",
        "icao": "VTSM",
        "iata": "USM",
        "zoneNo": "7",
        "regionNo": "4"
    },
    {
        "id": 3291,
        "nameTH": "สนามบินสุโขทัย",
        "nameEN": "SUKHOTHAI",
        "icao": "VTPO",
        "iata": "THS",
        "zoneNo": "7",
        "regionNo": "2"
    },
    {
        "id": 3328,
        "nameTH": "สนามบินสุรินทร์",
        "nameEN": "SURIN",
        "icao": "VTUJ",
        "iata": "PXR",
        "zoneNo": "7",
        "regionNo": "3"
    },
    {
        "id": 3296,
        "nameTH": "สนามบินอุตรดิตถ์",
        "nameEN": "UTARADIT",
        "icao": "VTPU",
        "iata": "UTR",
        "zoneNo": "7",
        "regionNo": "3"
    },
    {
        "id": 3798,
        "nameTH": "ออร์ดอส เอจิน โฮโร",
        "nameEN": "Ordos EJin Horo",
        "icao": "ZBDS",
        "iata": "DSN",
        "zoneNo": "8",
        "regionNo": "2"
    },
    {
        "id": 2998,
        "nameTH": "อัสตานา อินเตอร์เนชันแนล แอร์พอร์ต",
        "nameEN": "ASTANA INTERNATIONAL AIRPORT",
        "icao": "UACC",
        "iata": "TSE",
        "zoneNo": "10",
        "regionNo": "2"
    },
    {
        "id": 783,
        "nameTH": " เอมเดน",
        "nameEN": "EMDEN",
        "icao": "EDWE",
        "iata": "EME",
        "zoneNo": "3",
        "regionNo": "5"
    },
    {
        "id": 1463,
        "nameTH": "โฮป อินดรัสเชี่ยล แอร์ปาร์ค",
        "nameEN": "HOBBS INDUSTRIAL AIRPARK",
        "icao": "KHBB",
        "iata": "HBB",
        "zoneNo": "3",
        "regionNo": "5"
    }
]